COMMENT,ORIGINATOR,NORAD_CAT_ID,OBJECT_NAME,OBJECT_TYPE,CLASSIFICATION_TYPE,INTLDES,EPOCH,EPOCH_MICROSECONDS,MEAN_MOTION,ECCENTRICITY,INCLINATION,RA_OF_ASC_NODE,ARG_OF_PERICENTER,MEAN_ANOMALY,EPHEMERIS_TYPE,ELEMENT_SET_NO,REV_AT_EPOCH,BSTAR,MEAN_MOTION_DOT,MEAN_MOTION_DDOT,FILE,TLE_LINE0,TLE_LINE1,TLE_LINE2,OBJECT_ID,OBJECT_NUMBER,SEMIMAJOR_AXIS,PERIOD,APOGEE,PERIGEE,DECAYED,date
GENERATED VIA SPACETRACK.ORG API,18 SPCS,48899,SPACEBEE-110,PAYLOAD,U,21059W,2023/1/27 7:37,52096,15.22544449,0.000904,97.5792,162.5233,40.8064,319.3847,0,999,8792,0.000989,0.0002295,0,3762956,0 SPACEBEE-110,1 48899U 21059W   23027.31797514  .00022950  00000-0  98900-3 0  9993,2 48899  97.5792 162.5233 0009040  40.8064 319.3847 15.22544449 87927,2021-059W,48899,6876.306,94.579,504.387,491.955,0,2023/2/16
GENERATED VIA SPACETRACK.ORG API,18 SPCS,48899,SPACEBEE-110,PAYLOAD,U,21059W,2023/1/27 20:14,253504,15.22570653,0.0009001,97.579,163.0533,39.7332,320.4562,0,999,8800,0.00097993,0.00022755,0,3763218,0 SPACEBEE-110,1 48899U 21059W   23027.84374136  .00022755  00000-0  97993-3 0  9996,2 48899  97.5790 163.0533 0009001  39.7332 320.4562 15.22570653 88009,2021-059W,48899,6876.227,94.577,504.281,491.903,0,2023/2/17
GENERATED VIA SPACETRACK.ORG API,18 SPCS,48899,SPACEBEE-110,PAYLOAD,U,21059W,2023/1/28 4:08,246848,15.22585613,0.0009018,97.579,163.3853,38.7593,321.4288,0,999,8805,0.0010065,0.00023387,0,3763549,0 SPACEBEE-110,1 48899U 21059W   23028.17234082  .00023387  00000-0  10065-2 0  9994,2 48899  97.5790 163.3853 0009018  38.7593 321.4288 15.22585613 88056,2021-059W,48899,6876.182,94.576,504.248,491.846,0,2023/2/18
GENERATED VIA SPACETRACK.ORG API,18 SPCS,48899,SPACEBEE-110,PAYLOAD,U,21059W,2023/1/28 8:52,713600,15.22595086,0.0009022,97.579,163.5841,38.0594,322.1278,0,999,8808,0.00097712,0.00022706,0,3763924,0 SPACEBEE-110,1 48899U 21059W   23028.36949900  .00022706  00000-0  97712-3 0  9996,2 48899  97.5790 163.5841 0009022  38.0594 322.1278 15.22595086 88089,2021-059W,48899,6876.153,94.575,504.222,491.815,0,2023/2/19
GENERATED VIA SPACETRACK.ORG API,18 SPCS,48899,SPACEBEE-110,PAYLOAD,U,21059W,2023/1/28 21:29,543840,15.22614245,0.0008963,97.579,164.1142,36.5319,323.6527,0,999,8816,0.00077962,0.00018101,0,3764201,0 SPACEBEE-110,1 48899U 21059W   23028.89524935  .00018101  00000-0  77962-3 0  9990,2 48899  97.5790 164.1142 0008963  36.5319 323.6527 15.22614245 88162,2021-059W,48899,6876.096,94.574,504.124,491.798,0,2023/2/20
GENERATED VIA SPACETRACK.ORG API,18 SPCS,48899,SPACEBEE-110,PAYLOAD,U,21059W,2023/1/29 8:31,712480,15.22633384,0.0009033,97.5788,164.5783,34.5743,325.6078,0,999,8823,0.00081013,0.00018825,0,3764712,0 SPACEBEE-110,1 48899U 21059W   23029.35527445  .00018825  00000-0  81013-3 0  9996,2 48899  97.5788 164.5783 0009033  34.5743 325.6078 15.22633384 88238,2021-059W,48899,6876.038,94.573,504.114,491.692,0,2023/2/21
GENERATED VIA SPACETRACK.ORG API,18 SPCS,48899,SPACEBEE-110,PAYLOAD,U,21059W,2023/1/29 21:08,374592,15.22652039,0.0008952,97.5787,165.1085,32.8167,327.3623,0,999,8831,0.00070891,0.00016467,0,3765015,0 SPACEBEE-110,1 48899U 21059W   23029.88101128  .00016467  00000-0  70891-3 0  9992,2 48899  97.5787 165.1085 0008952  32.8167 327.3623 15.22652039 88311,2021-059W,48899,6875.982,94.572,504.002,491.692,0,2023/2/22
GENERATED VIA SPACETRACK.ORG API,18 SPCS,48899,SPACEBEE-110,PAYLOAD,U,21059W,2023/1/30 8:11,625664,15.22668021,0.0008994,97.5788,165.5725,30.6542,329.5218,0,999,8838,0.00072147,0.00016769,0,3765576,0 SPACEBEE-110,1 48899U 21059W   23030.34102576  .00016769  00000-0  72147-3 0  9994,2 48899  97.5788 165.5725 0008994  30.6542 329.5218 15.22668021 88385,2021-059W,48899,6875.934,94.571,503.983,491.615,0,2023/2/23
GENERATED VIA SPACETRACK.ORG API,18 SPCS,48899,SPACEBEE-110,PAYLOAD,U,21059W,2023/1/30 14:29,32064,15.22675881,0.0008997,97.5787,165.8376,29.7904,330.3842,0,999,8842,0.00070339,0.0001635,0,3765849,0 SPACEBEE-110,1 48899U 21059W   23030.60388926  .00016350  00000-0  70339-3 0  9995,2 48899  97.5787 165.8376 0008997  29.7904 330.3842 15.22675881 88423,2021-059W,48899,6875.91,94.57,503.961,491.589,0,2023/2/24
GENERATED VIA SPACETRACK.ORG API,18 SPCS,48899,SPACEBEE-110,PAYLOAD,U,21059W,2023/1/30 22:22,101280,15.22687383,0.0009001,97.5788,166.1692,28.5758,331.597,0,999,8847,0.00070833,0.00016471,0,3765794,0 SPACEBEE-110,1 48899U 21059W   23030.93246645  .00016471  00000-0  70833-3 0  9995,2 48899  97.5788 166.1692 0009001  28.5758 331.5970 15.22687383 88470,2021-059W,48899,6875.876,94.57,503.93,491.552,0,2023/2/25
GENERATED VIA SPACETRACK.ORG API,18 SPCS,48899,SPACEBEE-110,PAYLOAD,U,21059W,2023/1/31 7:50,632864,15.22704657,0.000897,97.5784,166.5669,27.2411,332.9294,0,999,8853,0.00081219,0.00018913,0,3766475,0 SPACEBEE-110,1 48899U 21059W   23031.32675501  .00018913  00000-0  81219-3 0  9999,2 48899  97.5784 166.5669 0008970  27.2411 332.9294 15.22704657 88535,2021-059W,48899,6875.824,94.569,503.856,491.521,0,2023/2/26
GENERATED VIA SPACETRACK.ORG API,18 SPCS,48899,SPACEBEE-110,PAYLOAD,U,21059W,2023/2/1 2:46,648864,15.22736799,0.0008862,97.5784,167.3622,25.019,335.1473,0,999,8865,0.00087136,0.00020318,0,3767102,0 SPACEBEE-110,1 48899U 21059W   23032.11532001  .00020318  00000-0  87136-3 0  9990,2 48899  97.5784 167.3622 0008862  25.0190 335.1473 15.22736799 88652,2021-059W,48899,6875.727,94.567,503.685,491.499,0,2023/2/27
GENERATED VIA SPACETRACK.ORG API,18 SPCS,48899,SPACEBEE-110,PAYLOAD,U,21059W,2023/2/1 7:29,400576,15.22745879,0.0008849,97.5784,167.5611,24.3802,335.7851,0,999,8868,0.00087586,0.00020429,0,3767525,0 SPACEBEE-110,1 48899U 21059W   23032.31245834  .00020429  00000-0  87586-3 0  9999,2 48899  97.5784 167.5611 0008849  24.3802 335.7851 15.22745879 88687,2021-059W,48899,6875.699,94.566,503.649,491.48,0,2023/2/28
GENERATED VIA SPACETRACK.ORG API,18 SPCS,48899,SPACEBEE-110,PAYLOAD,U,21059W,2023/2/2 8:43,224416,15.22793376,0.0008843,97.5787,168.6222,21.0916,339.0683,0,999,8884,0.00096519,0.00022558,0,3768366,0 SPACEBEE-110,1 48899U 21059W   23033.36384519  .00022558  00000-0  96519-3 0  9990,2 48899  97.5787 168.6222 0008843  21.0916 339.0683 15.22793376 88847,2021-059W,48899,6875.557,94.563,503.502,491.341,0,2023/3/1
GENERATED VIA SPACETRACK.ORG API,18 SPCS,48899,SPACEBEE-110,PAYLOAD,U,21059W,2023/2/2 22:55,493216,15.22813056,0.0008804,97.5789,169.2191,19.2588,340.898,0,999,8893,0.00078712,0.00018383,0,3769132,0 SPACEBEE-110,1 48899U 21059W   23033.95523719  .00018383  00000-0  78712-3 0  9998,2 48899  97.5789 169.2191 0008804  19.2588 340.8980 15.22813056 88930,2021-059W,48899,6875.497,94.562,503.415,491.309,0,2023/3/2
GENERATED VIA SPACETRACK.ORG API,18 SPCS,48899,SPACEBEE-110,PAYLOAD,U,21059W,2023/2/3 8:23,190880,15.2283159,0.0008793,97.5789,169.6171,17.7429,342.4112,0,999,8899,0.000853,0.00019943,0,3770323,0 SPACEBEE-110,1 48899U 21059W   23034.34949295  .00019943  00000-0  85300-3 0  9997,2 48899  97.5789 169.6171 0008793  17.7429 342.4112 15.22831590 88990,2021-059W,48899,6875.441,94.561,503.352,491.261,0,2023/3/3
GENERATED VIA SPACETRACK.ORG API,18 SPCS,48899,SPACEBEE-110,PAYLOAD,U,21059W,2023/2/4 8:02,772704,15.22877273,0.0008759,97.5791,170.6117,13.947,346.2006,0,999,8914,0.0010203,0.00023913,0,3771373,0 SPACEBEE-110,1 48899U 21059W   23035.33511311  .00023913  00000-0  10203-2 0  9992,2 48899  97.5791 170.6117 0008759  13.9470 346.2006 15.22877273 89141,2021-059W,48899,6875.304,94.558,503.191,491.147,0,2023/3/4
GENERATED VIA SPACETRACK.ORG API,18 SPCS,48899,SPACEBEE-110,PAYLOAD,U,21059W,2023/2/4 8:02,772704,15.22877273,0.0008759,97.5791,170.6117,13.947,346.2006,0,999,8914,0.0010203,0.00023913,0,3771952,0 SPACEBEE-110,1 48899U 21059W   23035.33511311  .00023913  00000-0  10203-2 0  9992,2 48899  97.5791 170.6117 0008759  13.9470 346.2006 15.22877273 89141,2021-059W,48899,6875.304,94.558,503.191,491.147,0,2023/3/5
GENERATED VIA SPACETRACK.ORG API,18 SPCS,48899,SPACEBEE-110,PAYLOAD,U,21059W,2023/2/4 22:14,107360,15.22901944,0.0008709,97.5794,171.2083,11.7917,348.3522,0,999,8923,0.00085333,0.00019992,0,3772514,0 SPACEBEE-110,1 48899U 21059W   23035.92647115  .00019992  00000-0  85333-3 0  9998,2 48899  97.5794 171.2083 0008709  11.7917 348.3522 15.22901944 89239,2021-059W,48899,6875.23,94.556,503.082,491.107,0,2023/3/6
GENERATED VIA SPACETRACK.ORG API,18 SPCS,48899,SPACEBEE-110,PAYLOAD,U,21059W,2023/2/5 7:41,860160,15.22919749,0.0008775,97.5796,171.6065,10.6555,349.4866,0,999,8929,0.00088307,0.00020704,0,3773728,0 SPACEBEE-110,1 48899U 21059W   23036.32070440  .00020704  00000-0  88307-3 0  9991,2 48899  97.5796 171.6065 0008775  10.6555 349.4866 15.22919749 89295,2021-059W,48899,6875.176,94.555,503.074,491.008,0,2023/3/7
GENERATED VIA SPACETRACK.ORG API,18 SPCS,48899,SPACEBEE-110,PAYLOAD,U,21059W,2023/2/5 21:53,705280,15.22947779,0.0008717,97.5799,172.2031,8.9258,351.2131,0,999,8938,0.00092116,0.00021621,0,3774172,0 SPACEBEE-110,1 48899U 21059W   23036.91204520  .00021621  00000-0  92116-3 0  9996,2 48899  97.5799 172.2031 0008717   8.9258 351.2131 15.22947779 89384,2021-059W,48899,6875.092,94.553,502.95,490.964,0,2023/3/8
GENERATED VIA SPACETRACK.ORG API,18 SPCS,48899,SPACEBEE-110,PAYLOAD,U,21059W,2023/2/6 2:37,102592,15.22957042,0.0008717,97.58,172.4021,8.3278,351.8102,0,999,8941,0.00097098,0.00022804,0,3774629,0 SPACEBEE-110,1 48899U 21059W   23037.10915628  .00022804  00000-0  97098-3 0  9994,2 48899  97.5800 172.4021 0008717   8.3278 351.8102 15.22957042 89416,2021-059W,48899,6875.064,94.553,502.922,490.936,0,2023/3/9
GENERATED VIA SPACETRACK.ORG API,18 SPCS,48899,SPACEBEE-110,PAYLOAD,U,21059W,2023/2/6 8:55,107776,15.22974477,0.0008732,97.58,172.6674,7.3737,352.7626,0,999,8945,0.0011415,0.0002685,0,3775254,0 SPACEBEE-110,1 48899U 21059W   23037.37196884  .00026850  00000-0  11415-2 0  9991,2 48899  97.5800 172.6674 0008732   7.3737 352.7626 15.22974477 89454,2021-059W,48899,6875.011,94.552,502.88,490.873,0,2023/3/10
